{"type": "FeatureCollection", "features": [{"type": "Feature", "geometry": {"type": "Point", "coordinates": [-122.4194, 37.7749]}, "properties": {"event_id": "ec922767-fa54-466a-bcba-3da37867e447", "class": "horse", "confidence": 0.6280178427696228}}, {"type": "Feature", "geometry": {"type": "Point", "coordinates": [-118.2437, 34.0522]}, "properties": {"event_id": "6c126c37-8684-4c1b-b032-8cd5f89dbc6b", "class": null, "confidence": null}}, {"type": "Feature", "geometry": {"type": "Point", "coordinates": [-74.006, 40.7128]}, "properties": {"event_id": "57e75f79-8619-4be8-8475-a96e13f7c415", "class": null, "confidence": null}}, {"type": "Feature", "geometry": {"type": "Point", "coordinates": [-74.006, 40.7128]}, "properties": {"event_id": "709a0a0e-72b3-4d7b-b66c-e183f8b38ec7", "class": "elephant", "confidence": 0.26878488063812256}}, {"type": "Feature", "geometry": {"type": "Point", "coordinates": [-0.1278, 51.5074]}, "properties": {"event_id": "287d319d-4cd7-4c45-9c81-0eec0fbe29c7", "class": "horse", "confidence": 0.6280178427696228}}, {"type": "Feature", "geometry": {"type": "Point", "coordinates": [151.2093, -33.8688]}, "properties": {"event_id": "58ad176a-da2b-4a9e-bd46-149bc451ceaa", "class": null, "confidence": null}}, {"type": "Feature", "geometry": {"type": "Point", "coordinates": [2.3522, 48.8566]}, "properties": {"event_id": "17f4293b-cec1-4f76-b7ec-25e869986001", "class": "horse", "confidence": 0.6280178427696228}}]}